PROBA-1                 
1 26958U 01049B   26168.20304676  .00001492  00000+0  99386-4 0  9999
2 26958  97.9594 176.7360 0056447 121.7580 238.9164 15.07495015343623
CUTE-1 (CO-55)          
1 27844U 03031E   26167.96692816  .00000228  00000+0  11765-3 0  9995
2 27844  98.6736 176.5285 0009524 178.6032 181.5176 14.24335593191646
CUBESAT XI-IV (CO-57)   
1 27848U 03031J   26167.95527529  .00000197  00000+0  10575-3 0  9999
2 27848  98.6766 176.2299 0009009 197.6805 162.4061 14.23620738191347
APRIZESAT 4             
1 35684U 09041D   26167.91988693  .00000559  00000+0  73352-4 0  9997
2 35684  98.1413 243.2350 0042418 323.9431  35.8923 14.83879055911323
APRIZESAT 3             
1 35686U 09041F   26168.16584860  .00001518  00000+0  13515-3 0  9995
2 35686  98.2061 321.3885 0062792  67.8291 292.9576 14.96241355916371
PROBA-2                 
1 36037U 09059B   26168.10292219  .00000136  00000+0  42216-4 0  9999
2 36037  98.2449 351.4568 0011962 282.4273  77.5586 14.54862413881515
APRIZESAT 5             
1 37792U 11044E   26167.73700514  .00000935  00000+0  12528-3 0  9994
2 37792  98.2453 100.7646 0052379   5.7788 354.4017 14.81075197798726
APRIZESAT 6             
1 37793U 11044F   26167.73922101  .00000622  00000+0  94864-4 0  9990
2 37793  98.2364  78.2297 0044499  87.4280 328.0393 14.76915295797085
PROBA-V                 
1 39159U 13021A   26168.18944041  .00000039  00000+0  35168-4 0  9996
2 39159  98.3584 146.7960 0005142 123.4230 236.7442 14.23596928681110
APRIZESAT 7             
1 39416U 13066A   26167.61727596  .00001051  00000+0  10935-3 0  9991
2 39416  97.7709 120.8454 0034954 211.2066 148.7077 14.91562845681140
APRIZESAT 8             
1 39425U 13066K   26168.14144882  .00000791  00000+0  91707-4 0  9998
2 39425  97.8221 115.6099 0044428 286.7278  72.9065 14.87652674679660
BUGSAT-1 (TITA)         
1 40014U 14033E   26168.16827611  .00004332  00000+0  22998-3 0  9999
2 40014  98.0435 260.7155 0028014 178.1481 181.9858 15.15585534655830
SAUDISAT 4              
1 40016U 14033G   26168.11885778  .00000546  00000+0  78506-4 0  9994
2 40016  97.7582 314.2558 0046161  74.2089 286.4206 14.79544776646061
APRIZESAT 9             
1 40018U 14033J   26167.93610689  .00000576  00000+0  92021-4 0  9993
2 40018  97.9061 301.1408 0065673 199.9777 159.8860 14.74214231643526
APRIZESAT 10            
1 40019U 14033K   26168.05862347  .00000351  00000+0  63288-4 0  9992
2 40019  97.9650 295.0208 0077387 274.2660  84.9707 14.70882348642234
TECHDEMOSAT-1 (TDS-1)   
1 40076U 14037H   26167.96014602  .00006221  00000+0  35375-3 0  9998
2 40076  98.3811 160.1505 0004462 266.7493  93.3225 15.13290781648199
TECHNOSAT               
1 42829U 17042E   26168.18277976  .00003172  00000+0  22713-3 0  9999
2 42829  97.4286 325.8401 0018959  94.2358 266.1036 15.04961466486700
FLYING LAPTOP           
1 42831U 17042G   26168.18552553  .00002102  00000+0  16791-3 0  9990
2 42831  97.4687 323.7174 0019599 121.7521 238.5617 15.01143957486455
HAWK-A                  
1 43765U 18099H   26168.08558654  .00005020  00000+0  20323-3 0  9995
2 43765  97.3911 220.3229 0033102 286.2651  73.4946 15.24641760413081
HAWK-B                  
1 43794U 18099AN  26168.10700359  .00004680  00000+0  20062-3 0  9992
2 43794  97.3960 219.7593 0030487 305.2659  54.5726 15.22825315413024
HAWK-C                  
1 43799U 18099AT  26168.06235937  .00006106  00000+0  22075-3 0  9998
2 43799  97.3888 221.2115 0038762 286.2501  73.4476 15.28102141413892
SALSAT                  
1 46495U 20068K   26168.01469823  .00006653  00000+0  23324-3 0  9996
2 46495  97.8847 171.0688 0008038 308.8582  51.1939 15.29798435315333
HAWK-2C                 
1 47502U 21006CT  26168.08706792  .00005180  00000+0  15646-3 0  9997
2 47502  97.2274 212.3990 0006685 185.9398 174.1768 15.34662649299487
HAWK-2A                 
1 47505U 21006CW  26168.15476426  .00005033  00000+0  15202-3 0  9991
2 47505  97.2315 213.1431 0006104 188.7949 171.3189 15.34677571299491
HAWK-2B                 
1 47508U 21006CZ  26168.08510277  .00005731  00000+0  17228-3 0  9994
2 47508  97.2187 211.4067 0006689 187.3239 172.7908 15.34765305299488
HAWK-3B                 
1 48931U 21059BE  26168.06924428  .00035300  00000+0  30002-3 0  9998
2 48931  97.6650   4.7658 0003218 332.6751  27.4340 15.69545485277830
HAWK-3C                 
1 48948U 21059BX  26168.06891994  .00033546  00000+0  28518-3 0  9996
2 48948  97.6774  10.4511 0003569 333.3672  26.7405 15.69547934277831
HAWK-3A                 
1 48957U 21059CG  26168.06878610  .00034699  00000+0  29470-3 0  9994
2 48957  97.6714   7.6563 0003583 335.3148  24.7941 15.69564933277837
HAWK-5C                 
1 52754U 22057Y   26168.17311668  .00015455  00000+0  26400-3 0  9999
2 52754  97.6600 327.8384 0004997  83.2929 276.8891 15.51391599226346
HAWK-5B                 
1 52756U 22057AA  26168.17296527  .00015506  00000+0  26483-3 0  9995
2 52756  97.6608 326.1874 0005666  76.1391 284.0491 15.51392885226346
HAWK-5A                 
1 52757U 22057AB  26168.17275684  .00015500  00000+0  26474-3 0  9991
2 52757  97.6608 327.0188 0005587  79.0620 281.1260 15.51390938226343
